FLOCK 4G-3              
1 62639U 25009AG  26068.80174065  .00011494  00000+0  43389-3 0  9993
2 62639  97.4062 151.4068 0001320 293.2042  66.9058 15.27179310 63727
TIANHUI 7               
1 67300U 25314A   26052.67009905  .00006572  00000+0  25701-3 0  9999
2 67300  97.4117 129.4508 0001691  83.9579 276.1853 15.26178925  8178
